<?xml version="1.0" encoding="UTF-8" standalone="yes"?>
<gpx xmlns="http://www.topografix.com/GPX/1/1" version="1.1" creator="Race Condition Running" xmlns:rcr="http://raceconditionrunning.com/extensions">
  <metadata>
    <name>lynnwood-alderwood-mall-loop</name>
    <desc>Lynnwood, Alderwood Mall Loop (5.0 mi)</desc>
    <link href="https://raceconditionrunning.com/routes/lynnwood-alderwood-mall-loop">
      <text>Race Condition Running: Lynnwood, Alderwood Mall Loop</text>
    </link>
    <author>
      <name>Race Condition Running</name>
      <link href="https://raceconditionrunning.com">
        <text>Race Condition Running</text>
      </link>
    </author>
    <extensions>
      <rcr:map>https://onthegomap.com/s/5bfdnbk1</rcr:map>
      <rcr:last_updated>2026-09-28</rcr:last_updated>
    </extensions>
  </metadata>
  <trk>
    <name>lynnwood-alderwood-mall-loop</name>
    <desc>Lynnwood, Alderwood Mall Loop (5.0 mi)</desc>
    <trkseg>
      <trkpt lat="47.81432" lon="-122.29414"><ele>103.28</ele></trkpt>
      <trkpt lat="47.81431" lon="-122.29413"><ele>103.28</ele></trkpt>
      <trkpt lat="47.81442" lon="-122.29413"><ele>103.59</ele></trkpt>
      <trkpt lat="47.81452" lon="-122.2941"><ele>103.34</ele></trkpt>
      <trkpt lat="47.81461" lon="-122.29395"><ele>103.89</ele></trkpt>
      <trkpt lat="47.81493" lon="-122.2934"><ele>105.47</ele></trkpt>
      <trkpt lat="47.81504" lon="-122.29329"><ele>105.91</ele></trkpt>
      <trkpt lat="47.81517" lon="-122.29322"><ele>106.28</ele></trkpt>
      <trkpt lat="47.81563" lon="-122.29321"><ele>107.48</ele></trkpt>
      <trkpt lat="47.81572" lon="-122.29326"><ele>107.71</ele></trkpt>
      <trkpt lat="47.81582" lon="-122.29337"><ele>108.96</ele></trkpt>
      <trkpt lat="47.81586" lon="-122.29341"><ele>108.85</ele></trkpt>
      <trkpt lat="47.8159" lon="-122.29334"><ele>109.20</ele></trkpt>
      <trkpt lat="47.81594" lon="-122.29328"><ele>109.57</ele></trkpt>
      <trkpt lat="47.81638" lon="-122.29284"><ele>110.39</ele></trkpt>
      <trkpt lat="47.81642" lon="-122.29279"><ele>110.51</ele></trkpt>
      <trkpt lat="47.81645" lon="-122.29272"><ele>110.67</ele></trkpt>
      <trkpt lat="47.81646" lon="-122.29268"><ele>110.80</ele></trkpt>
      <trkpt lat="47.81647" lon="-122.29257"><ele>110.97</ele></trkpt>
      <trkpt lat="47.81655" lon="-122.29258"><ele>111.13</ele></trkpt>
      <trkpt lat="47.81698" lon="-122.29257"><ele>112.80</ele></trkpt>
      <trkpt lat="47.81708" lon="-122.29256"><ele>112.97</ele></trkpt>
      <trkpt lat="47.81714" lon="-122.29258"><ele>113.27</ele></trkpt>
      <trkpt lat="47.81715" lon="-122.29256"><ele>113.19</ele></trkpt>
      <trkpt lat="47.81715" lon="-122.29245"><ele>113.09</ele></trkpt>
      <trkpt lat="47.81715" lon="-122.29226"><ele>113.06</ele></trkpt>
      <trkpt lat="47.81715" lon="-122.29212"><ele>113.25</ele></trkpt>
      <trkpt lat="47.81715" lon="-122.29209"><ele>113.34</ele></trkpt>
      <trkpt lat="47.81719" lon="-122.29207"><ele>113.47</ele></trkpt>
      <trkpt lat="47.81721" lon="-122.29203"><ele>113.63</ele></trkpt>
      <trkpt lat="47.81722" lon="-122.29199"><ele>113.73</ele></trkpt>
      <trkpt lat="47.81722" lon="-122.29159"><ele>114.08</ele></trkpt>
      <trkpt lat="47.81723" lon="-122.29139"><ele>114.71</ele></trkpt>
      <trkpt lat="47.81723" lon="-122.29119"><ele>115.24</ele></trkpt>
      <trkpt lat="47.81726" lon="-122.29029"><ele>117.47</ele></trkpt>
      <trkpt lat="47.81732" lon="-122.29029"><ele>117.53</ele></trkpt>
      <trkpt lat="47.81732" lon="-122.29009"><ele>117.83</ele></trkpt>
      <trkpt lat="47.81733" lon="-122.28952"><ele>118.38</ele></trkpt>
      <trkpt lat="47.81733" lon="-122.28944"><ele>118.46</ele></trkpt>
      <trkpt lat="47.81733" lon="-122.28908"><ele>118.83</ele></trkpt>
      <trkpt lat="47.81733" lon="-122.28881"><ele>119.08</ele></trkpt>
      <trkpt lat="47.81735" lon="-122.28851"><ele>119.31</ele></trkpt>
      <trkpt lat="47.81736" lon="-122.28828"><ele>119.56</ele></trkpt>
      <trkpt lat="47.81737" lon="-122.28819"><ele>119.64</ele></trkpt>
      <trkpt lat="47.81741" lon="-122.28792"><ele>119.92</ele></trkpt>
      <trkpt lat="47.81743" lon="-122.28784"><ele>120.00</ele></trkpt>
      <trkpt lat="47.81745" lon="-122.28774"><ele>120.12</ele></trkpt>
      <trkpt lat="47.8175" lon="-122.28756"><ele>120.26</ele></trkpt>
      <trkpt lat="47.81757" lon="-122.28733"><ele>120.54</ele></trkpt>
      <trkpt lat="47.81765" lon="-122.28716"><ele>120.71</ele></trkpt>
      <trkpt lat="47.81768" lon="-122.2871"><ele>120.79</ele></trkpt>
      <trkpt lat="47.81814" lon="-122.28622"><ele>122.00</ele></trkpt>
      <trkpt lat="47.81835" lon="-122.28582"><ele>123.42</ele></trkpt>
      <trkpt lat="47.81889" lon="-122.28479"><ele>128.34</ele></trkpt>
      <trkpt lat="47.8195" lon="-122.2837"><ele>132.80</ele></trkpt>
      <trkpt lat="47.81964" lon="-122.28344"><ele>133.63</ele></trkpt>
      <trkpt lat="47.81968" lon="-122.28337"><ele>133.47</ele></trkpt>
      <trkpt lat="47.82022" lon="-122.28248"><ele>132.82</ele></trkpt>
      <trkpt lat="47.82065" lon="-122.28168"><ele>128.88</ele></trkpt>
      <trkpt lat="47.82151" lon="-122.27987"><ele>133.75</ele></trkpt>
      <trkpt lat="47.82229" lon="-122.27839"><ele>131.18</ele></trkpt>
      <trkpt lat="47.82273" lon="-122.27755"><ele>127.46</ele></trkpt>
      <trkpt lat="47.82279" lon="-122.27746"><ele>127.20</ele></trkpt>
      <trkpt lat="47.82351" lon="-122.27609"><ele>122.17</ele></trkpt>
      <trkpt lat="47.82428" lon="-122.27464"><ele>116.51</ele></trkpt>
      <trkpt lat="47.82466" lon="-122.2739"><ele>117.27</ele></trkpt>
      <trkpt lat="47.82498" lon="-122.27329"><ele>117.97</ele></trkpt>
      <trkpt lat="47.82532" lon="-122.27265"><ele>118.73</ele></trkpt>
      <trkpt lat="47.82553" lon="-122.27225"><ele>118.91</ele></trkpt>
      <trkpt lat="47.82582" lon="-122.2717"><ele>119.03</ele></trkpt>
      <trkpt lat="47.82633" lon="-122.27079"><ele>120.55</ele></trkpt>
      <trkpt lat="47.82641" lon="-122.27065"><ele>120.84</ele></trkpt>
      <trkpt lat="47.82666" lon="-122.27019"><ele>122.42</ele></trkpt>
      <trkpt lat="47.82687" lon="-122.26982"><ele>124.59</ele></trkpt>
      <trkpt lat="47.82708" lon="-122.26945"><ele>124.22</ele></trkpt>
      <trkpt lat="47.82718" lon="-122.26925"><ele>122.71</ele></trkpt>
      <trkpt lat="47.82721" lon="-122.26914"><ele>122.49</ele></trkpt>
      <trkpt lat="47.82722" lon="-122.269"><ele>121.92</ele></trkpt>
      <trkpt lat="47.82721" lon="-122.26888"><ele>121.67</ele></trkpt>
      <trkpt lat="47.82731" lon="-122.26885"><ele>124.50</ele></trkpt>
      <trkpt lat="47.82745" lon="-122.26881"><ele>125.98</ele></trkpt>
      <trkpt lat="47.82749" lon="-122.26869"><ele>125.80</ele></trkpt>
      <trkpt lat="47.82777" lon="-122.26861"><ele>125.51</ele></trkpt>
      <trkpt lat="47.8278" lon="-122.26858"><ele>125.45</ele></trkpt>
      <trkpt lat="47.82781" lon="-122.26858"><ele>125.39</ele></trkpt>
      <trkpt lat="47.82788" lon="-122.26856"><ele>125.32</ele></trkpt>
      <trkpt lat="47.82787" lon="-122.26842"><ele>125.34</ele></trkpt>
      <trkpt lat="47.82788" lon="-122.26829"><ele>125.53</ele></trkpt>
      <trkpt lat="47.82791" lon="-122.26818"><ele>125.81</ele></trkpt>
      <trkpt lat="47.82796" lon="-122.26805"><ele>126.21</ele></trkpt>
      <trkpt lat="47.82838" lon="-122.26747"><ele>125.68</ele></trkpt>
      <trkpt lat="47.82845" lon="-122.26737"><ele>125.49</ele></trkpt>
      <trkpt lat="47.8287" lon="-122.26712"><ele>124.88</ele></trkpt>
      <trkpt lat="47.82878" lon="-122.26704"><ele>124.73</ele></trkpt>
      <trkpt lat="47.82904" lon="-122.26684"><ele>124.27</ele></trkpt>
      <trkpt lat="47.82922" lon="-122.26671"><ele>124.08</ele></trkpt>
      <trkpt lat="47.83032" lon="-122.26586"><ele>122.95</ele></trkpt>
      <trkpt lat="47.83055" lon="-122.26563"><ele>122.63</ele></trkpt>
      <trkpt lat="47.83068" lon="-122.26551"><ele>122.45</ele></trkpt>
      <trkpt lat="47.83095" lon="-122.2652"><ele>121.59</ele></trkpt>
      <trkpt lat="47.83099" lon="-122.26516"><ele>121.46</ele></trkpt>
      <trkpt lat="47.83145" lon="-122.26463"><ele>119.28</ele></trkpt>
      <trkpt lat="47.83159" lon="-122.26448"><ele>119.05</ele></trkpt>
      <trkpt lat="47.8317" lon="-122.26442"><ele>118.98</ele></trkpt>
      <trkpt lat="47.83181" lon="-122.26439"><ele>118.86</ele></trkpt>
      <trkpt lat="47.83193" lon="-122.26438"><ele>118.70</ele></trkpt>
      <trkpt lat="47.83203" lon="-122.26439"><ele>118.57</ele></trkpt>
      <trkpt lat="47.83213" lon="-122.26442"><ele>118.52</ele></trkpt>
      <trkpt lat="47.83222" lon="-122.26446"><ele>118.65</ele></trkpt>
      <trkpt lat="47.83231" lon="-122.26454"><ele>118.87</ele></trkpt>
      <trkpt lat="47.83236" lon="-122.2645"><ele>118.94</ele></trkpt>
      <trkpt lat="47.83241" lon="-122.26451"><ele>118.94</ele></trkpt>
      <trkpt lat="47.83257" lon="-122.26464"><ele>120.24</ele></trkpt>
      <trkpt lat="47.83269" lon="-122.26474"><ele>121.00</ele></trkpt>
      <trkpt lat="47.83384" lon="-122.26651"><ele>119.18</ele></trkpt>
      <trkpt lat="47.83405" lon="-122.26703"><ele>115.94</ele></trkpt>
      <trkpt lat="47.83478" lon="-122.26823"><ele>107.56</ele></trkpt>
      <trkpt lat="47.83484" lon="-122.26834"><ele>107.51</ele></trkpt>
      <trkpt lat="47.83489" lon="-122.26861"><ele>107.61</ele></trkpt>
      <trkpt lat="47.83499" lon="-122.26866"><ele>107.60</ele></trkpt>
      <trkpt lat="47.83617" lon="-122.27035"><ele>106.69</ele></trkpt>
      <trkpt lat="47.8361" lon="-122.27061"><ele>107.01</ele></trkpt>
      <trkpt lat="47.83606" lon="-122.27076"><ele>107.27</ele></trkpt>
      <trkpt lat="47.83597" lon="-122.27109"><ele>107.86</ele></trkpt>
      <trkpt lat="47.83589" lon="-122.27141"><ele>109.07</ele></trkpt>
      <trkpt lat="47.8359" lon="-122.27169"><ele>109.66</ele></trkpt>
      <trkpt lat="47.83578" lon="-122.27215"><ele>110.19</ele></trkpt>
      <trkpt lat="47.83569" lon="-122.27245"><ele>110.82</ele></trkpt>
      <trkpt lat="47.83577" lon="-122.27255"><ele>110.80</ele></trkpt>
      <trkpt lat="47.83586" lon="-122.27272"><ele>110.80</ele></trkpt>
      <trkpt lat="47.83598" lon="-122.27293"><ele>111.08</ele></trkpt>
      <trkpt lat="47.83609" lon="-122.27305"><ele>111.26</ele></trkpt>
      <trkpt lat="47.8362" lon="-122.27312"><ele>111.32</ele></trkpt>
      <trkpt lat="47.83663" lon="-122.27325"><ele>111.76</ele></trkpt>
      <trkpt lat="47.83658" lon="-122.27459"><ele>120.28</ele></trkpt>
      <trkpt lat="47.83656" lon="-122.27576"><ele>130.11</ele></trkpt>
      <trkpt lat="47.83654" lon="-122.27639"><ele>133.97</ele></trkpt>
      <trkpt lat="47.83652" lon="-122.27665"><ele>134.73</ele></trkpt>
      <trkpt lat="47.83653" lon="-122.27686"><ele>135.31</ele></trkpt>
      <trkpt lat="47.83657" lon="-122.27728"><ele>136.61</ele></trkpt>
      <trkpt lat="47.83656" lon="-122.27792"><ele>138.49</ele></trkpt>
      <trkpt lat="47.83653" lon="-122.27971"><ele>149.32</ele></trkpt>
      <trkpt lat="47.83649" lon="-122.281"><ele>148.86</ele></trkpt>
      <trkpt lat="47.83644" lon="-122.28141"><ele>148.27</ele></trkpt>
      <trkpt lat="47.83642" lon="-122.28153"><ele>147.73</ele></trkpt>
      <trkpt lat="47.83637" lon="-122.28173"><ele>147.84</ele></trkpt>
      <trkpt lat="47.83631" lon="-122.28194"><ele>147.07</ele></trkpt>
      <trkpt lat="47.83626" lon="-122.28221"><ele>146.26</ele></trkpt>
      <trkpt lat="47.83624" lon="-122.28251"><ele>145.88</ele></trkpt>
      <trkpt lat="47.83623" lon="-122.2826"><ele>145.66</ele></trkpt>
      <trkpt lat="47.83624" lon="-122.28288"><ele>144.77</ele></trkpt>
      <trkpt lat="47.83627" lon="-122.28426"><ele>147.05</ele></trkpt>
      <trkpt lat="47.8363" lon="-122.28483"><ele>147.60</ele></trkpt>
      <trkpt lat="47.83632" lon="-122.28539"><ele>148.71</ele></trkpt>
      <trkpt lat="47.83634" lon="-122.28597"><ele>150.11</ele></trkpt>
      <trkpt lat="47.83634" lon="-122.286"><ele>150.15</ele></trkpt>
      <trkpt lat="47.83637" lon="-122.28664"><ele>150.39</ele></trkpt>
      <trkpt lat="47.83634" lon="-122.28712"><ele>150.53</ele></trkpt>
      <trkpt lat="47.83629" lon="-122.28746"><ele>150.63</ele></trkpt>
      <trkpt lat="47.8362" lon="-122.28779"><ele>150.45</ele></trkpt>
      <trkpt lat="47.83612" lon="-122.28797"><ele>150.36</ele></trkpt>
      <trkpt lat="47.83595" lon="-122.28825"><ele>150.38</ele></trkpt>
      <trkpt lat="47.83568" lon="-122.28864"><ele>150.18</ele></trkpt>
      <trkpt lat="47.83554" lon="-122.28881"><ele>150.05</ele></trkpt>
      <trkpt lat="47.83522" lon="-122.28919"><ele>149.50</ele></trkpt>
      <trkpt lat="47.83512" lon="-122.28931"><ele>149.36</ele></trkpt>
      <trkpt lat="47.83478" lon="-122.28972"><ele>149.30</ele></trkpt>
      <trkpt lat="47.83452" lon="-122.29008"><ele>149.32</ele></trkpt>
      <trkpt lat="47.83443" lon="-122.29022"><ele>149.38</ele></trkpt>
      <trkpt lat="47.83435" lon="-122.29038"><ele>149.46</ele></trkpt>
      <trkpt lat="47.83412" lon="-122.29105"><ele>148.62</ele></trkpt>
      <trkpt lat="47.83402" lon="-122.29143"><ele>148.44</ele></trkpt>
      <trkpt lat="47.83401" lon="-122.29164"><ele>148.61</ele></trkpt>
      <trkpt lat="47.83402" lon="-122.29236"><ele>148.60</ele></trkpt>
      <trkpt lat="47.83402" lon="-122.29249"><ele>148.68</ele></trkpt>
      <trkpt lat="47.83327" lon="-122.29249"><ele>149.14</ele></trkpt>
      <trkpt lat="47.83308" lon="-122.29249"><ele>148.87</ele></trkpt>
      <trkpt lat="47.83234" lon="-122.2925"><ele>145.83</ele></trkpt>
      <trkpt lat="47.83204" lon="-122.29249"><ele>144.74</ele></trkpt>
      <trkpt lat="47.83183" lon="-122.29249"><ele>144.41</ele></trkpt>
      <trkpt lat="47.83118" lon="-122.29248"><ele>143.18</ele></trkpt>
      <trkpt lat="47.83094" lon="-122.29247"><ele>142.35</ele></trkpt>
      <trkpt lat="47.83086" lon="-122.29247"><ele>142.04</ele></trkpt>
      <trkpt lat="47.8303" lon="-122.29246"><ele>139.72</ele></trkpt>
      <trkpt lat="47.83027" lon="-122.29246"><ele>139.63</ele></trkpt>
      <trkpt lat="47.8298" lon="-122.29245"><ele>138.91</ele></trkpt>
      <trkpt lat="47.82959" lon="-122.29245"><ele>138.70</ele></trkpt>
      <trkpt lat="47.82952" lon="-122.29245"><ele>138.62</ele></trkpt>
      <trkpt lat="47.82944" lon="-122.29245"><ele>138.54</ele></trkpt>
      <trkpt lat="47.82931" lon="-122.29245"><ele>138.42</ele></trkpt>
      <trkpt lat="47.829" lon="-122.29244"><ele>138.17</ele></trkpt>
      <trkpt lat="47.82833" lon="-122.29243"><ele>137.57</ele></trkpt>
      <trkpt lat="47.82825" lon="-122.29243"><ele>137.44</ele></trkpt>
      <trkpt lat="47.82815" lon="-122.29243"><ele>137.23</ele></trkpt>
      <trkpt lat="47.82733" lon="-122.29242"><ele>136.35</ele></trkpt>
      <trkpt lat="47.82713" lon="-122.29242"><ele>136.22</ele></trkpt>
      <trkpt lat="47.82683" lon="-122.29242"><ele>135.94</ele></trkpt>
      <trkpt lat="47.82633" lon="-122.29241"><ele>135.45</ele></trkpt>
      <trkpt lat="47.82573" lon="-122.2924"><ele>134.73</ele></trkpt>
      <trkpt lat="47.82545" lon="-122.2924"><ele>134.35</ele></trkpt>
      <trkpt lat="47.8249" lon="-122.2924"><ele>133.39</ele></trkpt>
      <trkpt lat="47.82459" lon="-122.29241"><ele>132.82</ele></trkpt>
      <trkpt lat="47.82396" lon="-122.29242"><ele>131.65</ele></trkpt>
      <trkpt lat="47.82352" lon="-122.29241"><ele>130.44</ele></trkpt>
      <trkpt lat="47.82348" lon="-122.29241"><ele>130.25</ele></trkpt>
      <trkpt lat="47.82337" lon="-122.29241"><ele>129.82</ele></trkpt>
      <trkpt lat="47.82292" lon="-122.2924"><ele>127.86</ele></trkpt>
      <trkpt lat="47.82281" lon="-122.29239"><ele>127.40</ele></trkpt>
      <trkpt lat="47.82273" lon="-122.2924"><ele>127.09</ele></trkpt>
      <trkpt lat="47.82236" lon="-122.2924"><ele>125.82</ele></trkpt>
      <trkpt lat="47.82205" lon="-122.2924"><ele>125.04</ele></trkpt>
      <trkpt lat="47.82174" lon="-122.2924"><ele>124.36</ele></trkpt>
      <trkpt lat="47.82153" lon="-122.29241"><ele>123.91</ele></trkpt>
      <trkpt lat="47.82115" lon="-122.29243"><ele>123.45</ele></trkpt>
      <trkpt lat="47.82103" lon="-122.29242"><ele>123.52</ele></trkpt>
      <trkpt lat="47.8209" lon="-122.29242"><ele>123.44</ele></trkpt>
      <trkpt lat="47.8209" lon="-122.2923"><ele>123.68</ele></trkpt>
      <trkpt lat="47.8209" lon="-122.29242"><ele>123.44</ele></trkpt>
      <trkpt lat="47.82079" lon="-122.29251"><ele>123.08</ele></trkpt>
      <trkpt lat="47.8205" lon="-122.2925"><ele>122.46</ele></trkpt>
      <trkpt lat="47.8205" lon="-122.29258"><ele>122.44</ele></trkpt>
      <trkpt lat="47.82031" lon="-122.29258"><ele>121.91</ele></trkpt>
      <trkpt lat="47.81922" lon="-122.29256"><ele>118.87</ele></trkpt>
      <trkpt lat="47.81856" lon="-122.29255"><ele>117.25</ele></trkpt>
      <trkpt lat="47.81833" lon="-122.29255"><ele>116.55</ele></trkpt>
      <trkpt lat="47.81778" lon="-122.29255"><ele>115.01</ele></trkpt>
      <trkpt lat="47.8176" lon="-122.29255"><ele>114.56</ele></trkpt>
      <trkpt lat="47.81756" lon="-122.29255"><ele>114.40</ele></trkpt>
      <trkpt lat="47.8175" lon="-122.29258"><ele>114.12</ele></trkpt>
      <trkpt lat="47.81746" lon="-122.29261"><ele>113.99</ele></trkpt>
      <trkpt lat="47.81745" lon="-122.29259"><ele>113.71</ele></trkpt>
      <trkpt lat="47.81739" lon="-122.29259"><ele>113.62</ele></trkpt>
      <trkpt lat="47.81729" lon="-122.29259"><ele>113.56</ele></trkpt>
      <trkpt lat="47.81719" lon="-122.29259"><ele>113.41</ele></trkpt>
      <trkpt lat="47.81717" lon="-122.29261"><ele>113.45</ele></trkpt>
      <trkpt lat="47.81714" lon="-122.29258"><ele>113.27</ele></trkpt>
      <trkpt lat="47.81708" lon="-122.29256"><ele>112.97</ele></trkpt>
      <trkpt lat="47.81698" lon="-122.29257"><ele>112.80</ele></trkpt>
      <trkpt lat="47.81655" lon="-122.29258"><ele>111.13</ele></trkpt>
      <trkpt lat="47.81647" lon="-122.29257"><ele>110.97</ele></trkpt>
      <trkpt lat="47.81646" lon="-122.29268"><ele>110.80</ele></trkpt>
      <trkpt lat="47.81645" lon="-122.29272"><ele>110.67</ele></trkpt>
      <trkpt lat="47.81642" lon="-122.29279"><ele>110.51</ele></trkpt>
      <trkpt lat="47.81638" lon="-122.29284"><ele>110.39</ele></trkpt>
      <trkpt lat="47.81594" lon="-122.29328"><ele>109.57</ele></trkpt>
      <trkpt lat="47.8159" lon="-122.29334"><ele>109.20</ele></trkpt>
      <trkpt lat="47.81586" lon="-122.29341"><ele>108.85</ele></trkpt>
      <trkpt lat="47.81582" lon="-122.29337"><ele>108.96</ele></trkpt>
      <trkpt lat="47.81572" lon="-122.29326"><ele>107.71</ele></trkpt>
      <trkpt lat="47.81563" lon="-122.29321"><ele>107.48</ele></trkpt>
      <trkpt lat="47.81517" lon="-122.29322"><ele>106.28</ele></trkpt>
      <trkpt lat="47.81504" lon="-122.29329"><ele>105.91</ele></trkpt>
      <trkpt lat="47.81493" lon="-122.2934"><ele>105.47</ele></trkpt>
      <trkpt lat="47.81461" lon="-122.29395"><ele>103.89</ele></trkpt>
      <trkpt lat="47.81452" lon="-122.2941"><ele>103.34</ele></trkpt>
      <trkpt lat="47.81445" lon="-122.29426"><ele>103.51</ele></trkpt>
      <trkpt lat="47.81442" lon="-122.29437"><ele>103.54</ele></trkpt>
      <trkpt lat="47.81438" lon="-122.29426"><ele>103.43</ele></trkpt>
    </trkseg>
  </trk>
</gpx>
