<?xml version="1.0" encoding="UTF-8" standalone="yes"?>
<gpx xmlns="http://www.topografix.com/GPX/1/1" version="1.1" creator="Race Condition Running" xmlns:rcr="http://raceconditionrunning.com/extensions">
  <metadata>
    <name>lynnwood-golf-course-interuban-loop</name>
    <desc>Lynnwood, Golf Course, Interurban Loop (6.5 mi)</desc>
    <link href="https://raceconditionrunning.com/routes/lynnwood-golf-course-interuban-loop">
      <text>Race Condition Running: Lynnwood, Golf Course, Interurban Loop</text>
    </link>
    <author>
      <name>Race Condition Running</name>
      <link href="https://raceconditionrunning.com">
        <text>Race Condition Running</text>
      </link>
    </author>
    <extensions>
      <rcr:map>https://onthegomap.com/s/t5s1suku</rcr:map>
      <rcr:last_updated>2026-09-28</rcr:last_updated>
    </extensions>
  </metadata>
  <trk>
    <name>lynnwood-golf-course-interuban-loop</name>
    <desc>Lynnwood, Golf Course, Interurban Loop (6.5 mi)</desc>
    <trkseg>
      <trkpt lat="47.81391" lon="-122.29411"><ele>104.66</ele></trkpt>
      <trkpt lat="47.81387" lon="-122.29412"><ele>104.91</ele></trkpt>
      <trkpt lat="47.81381" lon="-122.29415"><ele>105.23</ele></trkpt>
      <trkpt lat="47.81368" lon="-122.29449"><ele>101.18</ele></trkpt>
      <trkpt lat="47.81363" lon="-122.29463"><ele>105.44</ele></trkpt>
      <trkpt lat="47.81349" lon="-122.2951"><ele>105.30</ele></trkpt>
      <trkpt lat="47.81263" lon="-122.29762"><ele>106.14</ele></trkpt>
      <trkpt lat="47.81258" lon="-122.2978"><ele>106.25</ele></trkpt>
      <trkpt lat="47.81254" lon="-122.29798"><ele>106.53</ele></trkpt>
      <trkpt lat="47.8109" lon="-122.3029"><ele>111.16</ele></trkpt>
      <trkpt lat="47.8108" lon="-122.30317"><ele>111.31</ele></trkpt>
      <trkpt lat="47.81076" lon="-122.30329"><ele>111.33</ele></trkpt>
      <trkpt lat="47.81049" lon="-122.30411"><ele>111.34</ele></trkpt>
      <trkpt lat="47.81044" lon="-122.3042"><ele>111.31</ele></trkpt>
      <trkpt lat="47.81033" lon="-122.30428"><ele>111.39</ele></trkpt>
      <trkpt lat="47.81029" lon="-122.30435"><ele>111.57</ele></trkpt>
      <trkpt lat="47.81027" lon="-122.3044"><ele>111.66</ele></trkpt>
      <trkpt lat="47.81026" lon="-122.30445"><ele>111.68</ele></trkpt>
      <trkpt lat="47.81026" lon="-122.30452"><ele>111.57</ele></trkpt>
      <trkpt lat="47.81026" lon="-122.30457"><ele>111.51</ele></trkpt>
      <trkpt lat="47.81026" lon="-122.30464"><ele>111.64</ele></trkpt>
      <trkpt lat="47.81026" lon="-122.30468"><ele>111.78</ele></trkpt>
      <trkpt lat="47.81024" lon="-122.30478"><ele>111.97</ele></trkpt>
      <trkpt lat="47.81025" lon="-122.30577"><ele>112.63</ele></trkpt>
      <trkpt lat="47.81023" lon="-122.30576"><ele>112.53</ele></trkpt>
      <trkpt lat="47.81019" lon="-122.30576"><ele>112.56</ele></trkpt>
      <trkpt lat="47.81013" lon="-122.30576"><ele>112.40</ele></trkpt>
      <trkpt lat="47.81012" lon="-122.30577"><ele>112.50</ele></trkpt>
      <trkpt lat="47.81" lon="-122.30578"><ele>112.68</ele></trkpt>
      <trkpt lat="47.80999" lon="-122.30579"><ele>112.68</ele></trkpt>
      <trkpt lat="47.80997" lon="-122.30584"><ele>112.72</ele></trkpt>
      <trkpt lat="47.80996" lon="-122.30591"><ele>112.77</ele></trkpt>
      <trkpt lat="47.80994" lon="-122.30597"><ele>112.89</ele></trkpt>
      <trkpt lat="47.8099" lon="-122.30614"><ele>112.51</ele></trkpt>
      <trkpt lat="47.80931" lon="-122.30846"><ele>107.07</ele></trkpt>
      <trkpt lat="47.80898" lon="-122.30982"><ele>105.14</ele></trkpt>
      <trkpt lat="47.80895" lon="-122.30996"><ele>105.04</ele></trkpt>
      <trkpt lat="47.80875" lon="-122.3107"><ele>104.34</ele></trkpt>
      <trkpt lat="47.80872" lon="-122.31085"><ele>104.21</ele></trkpt>
      <trkpt lat="47.80843" lon="-122.31187"><ele>103.29</ele></trkpt>
      <trkpt lat="47.80795" lon="-122.31326"><ele>102.55</ele></trkpt>
      <trkpt lat="47.80781" lon="-122.31365"><ele>102.38</ele></trkpt>
      <trkpt lat="47.80768" lon="-122.31399"><ele>102.60</ele></trkpt>
      <trkpt lat="47.80707" lon="-122.31568"><ele>102.86</ele></trkpt>
      <trkpt lat="47.807" lon="-122.31582"><ele>102.97</ele></trkpt>
      <trkpt lat="47.80694" lon="-122.3159"><ele>103.10</ele></trkpt>
      <trkpt lat="47.80688" lon="-122.31597"><ele>103.25</ele></trkpt>
      <trkpt lat="47.80678" lon="-122.31608"><ele>103.30</ele></trkpt>
      <trkpt lat="47.80675" lon="-122.31612"><ele>103.14</ele></trkpt>
      <trkpt lat="47.80673" lon="-122.31618"><ele>103.15</ele></trkpt>
      <trkpt lat="47.80674" lon="-122.31666"><ele>103.42</ele></trkpt>
      <trkpt lat="47.80674" lon="-122.3169"><ele>103.50</ele></trkpt>
      <trkpt lat="47.80668" lon="-122.31692"><ele>103.61</ele></trkpt>
      <trkpt lat="47.80668" lon="-122.31712"><ele>103.58</ele></trkpt>
      <trkpt lat="47.80668" lon="-122.31726"><ele>103.55</ele></trkpt>
      <trkpt lat="47.80664" lon="-122.31726"><ele>103.38</ele></trkpt>
      <trkpt lat="47.80662" lon="-122.31726"><ele>103.48</ele></trkpt>
      <trkpt lat="47.8066" lon="-122.31727"><ele>103.42</ele></trkpt>
      <trkpt lat="47.80658" lon="-122.31729"><ele>103.26</ele></trkpt>
      <trkpt lat="47.80656" lon="-122.31735"><ele>103.15</ele></trkpt>
      <trkpt lat="47.80621" lon="-122.31828"><ele>102.03</ele></trkpt>
      <trkpt lat="47.80615" lon="-122.3184"><ele>101.81</ele></trkpt>
      <trkpt lat="47.80606" lon="-122.31853"><ele>101.52</ele></trkpt>
      <trkpt lat="47.806" lon="-122.31865"><ele>101.30</ele></trkpt>
      <trkpt lat="47.80587" lon="-122.31893"><ele>100.52</ele></trkpt>
      <trkpt lat="47.80549" lon="-122.31993"><ele>98.47</ele></trkpt>
      <trkpt lat="47.80512" lon="-122.32098"><ele>97.67</ele></trkpt>
      <trkpt lat="47.80508" lon="-122.32112"><ele>97.54</ele></trkpt>
      <trkpt lat="47.80506" lon="-122.3212"><ele>97.50</ele></trkpt>
      <trkpt lat="47.80485" lon="-122.32169"><ele>97.40</ele></trkpt>
      <trkpt lat="47.8048" lon="-122.32183"><ele>97.19</ele></trkpt>
      <trkpt lat="47.8048" lon="-122.32186"><ele>97.20</ele></trkpt>
      <trkpt lat="47.8048" lon="-122.32192"><ele>97.34</ele></trkpt>
      <trkpt lat="47.8048" lon="-122.32202"><ele>97.26</ele></trkpt>
      <trkpt lat="47.8048" lon="-122.32204"><ele>97.32</ele></trkpt>
      <trkpt lat="47.80474" lon="-122.32204"><ele>96.98</ele></trkpt>
      <trkpt lat="47.80469" lon="-122.32217"><ele>96.90</ele></trkpt>
      <trkpt lat="47.80426" lon="-122.32331"><ele>96.95</ele></trkpt>
      <trkpt lat="47.80388" lon="-122.32436"><ele>96.87</ele></trkpt>
      <trkpt lat="47.80383" lon="-122.32449"><ele>96.48</ele></trkpt>
      <trkpt lat="47.80382" lon="-122.32452"><ele>96.44</ele></trkpt>
      <trkpt lat="47.8038" lon="-122.32459"><ele>96.47</ele></trkpt>
      <trkpt lat="47.80377" lon="-122.32467"><ele>96.23</ele></trkpt>
      <trkpt lat="47.80371" lon="-122.32482"><ele>96.37</ele></trkpt>
      <trkpt lat="47.80337" lon="-122.32578"><ele>95.63</ele></trkpt>
      <trkpt lat="47.80331" lon="-122.3259"><ele>95.59</ele></trkpt>
      <trkpt lat="47.80326" lon="-122.32605"><ele>95.83</ele></trkpt>
      <trkpt lat="47.80326" lon="-122.32645"><ele>97.06</ele></trkpt>
      <trkpt lat="47.80326" lon="-122.32653"><ele>97.27</ele></trkpt>
      <trkpt lat="47.80319" lon="-122.32659"><ele>97.52</ele></trkpt>
      <trkpt lat="47.80314" lon="-122.32664"><ele>97.60</ele></trkpt>
      <trkpt lat="47.80304" lon="-122.32673"><ele>97.47</ele></trkpt>
      <trkpt lat="47.80294" lon="-122.32682"><ele>97.10</ele></trkpt>
      <trkpt lat="47.80282" lon="-122.32717"><ele>97.11</ele></trkpt>
      <trkpt lat="47.80264" lon="-122.32766"><ele>97.13</ele></trkpt>
      <trkpt lat="47.80247" lon="-122.32803"><ele>97.12</ele></trkpt>
      <trkpt lat="47.80228" lon="-122.32834"><ele>97.12</ele></trkpt>
      <trkpt lat="47.80193" lon="-122.32881"><ele>96.71</ele></trkpt>
      <trkpt lat="47.80166" lon="-122.32913"><ele>96.46</ele></trkpt>
      <trkpt lat="47.80138" lon="-122.32938"><ele>96.15</ele></trkpt>
      <trkpt lat="47.80107" lon="-122.32961"><ele>95.91</ele></trkpt>
      <trkpt lat="47.80075" lon="-122.32976"><ele>95.66</ele></trkpt>
      <trkpt lat="47.80073" lon="-122.32977"><ele>95.66</ele></trkpt>
      <trkpt lat="47.80044" lon="-122.32985"><ele>95.47</ele></trkpt>
      <trkpt lat="47.80034" lon="-122.32979"><ele>95.33</ele></trkpt>
      <trkpt lat="47.79978" lon="-122.32985"><ele>95.92</ele></trkpt>
      <trkpt lat="47.7997" lon="-122.32985"><ele>95.71</ele></trkpt>
      <trkpt lat="47.7997" lon="-122.33033"><ele>98.73</ele></trkpt>
      <trkpt lat="47.79961" lon="-122.33033"><ele>98.86</ele></trkpt>
      <trkpt lat="47.79961" lon="-122.3304"><ele>99.37</ele></trkpt>
      <trkpt lat="47.79961" lon="-122.33074"><ele>101.95</ele></trkpt>
      <trkpt lat="47.79962" lon="-122.33152"><ele>107.03</ele></trkpt>
      <trkpt lat="47.79962" lon="-122.33166"><ele>107.36</ele></trkpt>
      <trkpt lat="47.79963" lon="-122.33185"><ele>107.43</ele></trkpt>
      <trkpt lat="47.79963" lon="-122.33206"><ele>107.82</ele></trkpt>
      <trkpt lat="47.79954" lon="-122.33216"><ele>108.06</ele></trkpt>
      <trkpt lat="47.79955" lon="-122.33223"><ele>108.45</ele></trkpt>
      <trkpt lat="47.79955" lon="-122.33237"><ele>108.86</ele></trkpt>
      <trkpt lat="47.79956" lon="-122.33334"><ele>109.62</ele></trkpt>
      <trkpt lat="47.79957" lon="-122.33353"><ele>109.76</ele></trkpt>
      <trkpt lat="47.79958" lon="-122.33405"><ele>110.36</ele></trkpt>
      <trkpt lat="47.79958" lon="-122.33417"><ele>110.53</ele></trkpt>
      <trkpt lat="47.79957" lon="-122.33426"><ele>111.07</ele></trkpt>
      <trkpt lat="47.79958" lon="-122.33465"><ele>112.67</ele></trkpt>
      <trkpt lat="47.79959" lon="-122.33511"><ele>115.18</ele></trkpt>
      <trkpt lat="47.79959" lon="-122.33549"><ele>116.63</ele></trkpt>
      <trkpt lat="47.79959" lon="-122.33551"><ele>116.67</ele></trkpt>
      <trkpt lat="47.79959" lon="-122.33552"><ele>116.69</ele></trkpt>
      <trkpt lat="47.79959" lon="-122.33565"><ele>116.98</ele></trkpt>
      <trkpt lat="47.79957" lon="-122.33565"><ele>116.98</ele></trkpt>
      <trkpt lat="47.79959" lon="-122.33565"><ele>116.98</ele></trkpt>
      <trkpt lat="47.79967" lon="-122.33565"><ele>117.01</ele></trkpt>
      <trkpt lat="47.79974" lon="-122.33565"><ele>117.04</ele></trkpt>
      <trkpt lat="47.79994" lon="-122.33566"><ele>117.18</ele></trkpt>
      <trkpt lat="47.80013" lon="-122.33566"><ele>117.24</ele></trkpt>
      <trkpt lat="47.80032" lon="-122.33566"><ele>117.37</ele></trkpt>
      <trkpt lat="47.8006" lon="-122.33567"><ele>117.85</ele></trkpt>
      <trkpt lat="47.8009" lon="-122.33567"><ele>118.43</ele></trkpt>
      <trkpt lat="47.80096" lon="-122.33567"><ele>118.55</ele></trkpt>
      <trkpt lat="47.8011" lon="-122.33567"><ele>118.84</ele></trkpt>
      <trkpt lat="47.80113" lon="-122.33567"><ele>118.90</ele></trkpt>
      <trkpt lat="47.80147" lon="-122.33567"><ele>119.51</ele></trkpt>
      <trkpt lat="47.80192" lon="-122.33568"><ele>120.32</ele></trkpt>
      <trkpt lat="47.80213" lon="-122.33568"><ele>120.71</ele></trkpt>
      <trkpt lat="47.80232" lon="-122.33568"><ele>121.09</ele></trkpt>
      <trkpt lat="47.80251" lon="-122.33568"><ele>121.51</ele></trkpt>
      <trkpt lat="47.8029" lon="-122.33569"><ele>122.29</ele></trkpt>
      <trkpt lat="47.80292" lon="-122.33559"><ele>122.17</ele></trkpt>
      <trkpt lat="47.80324" lon="-122.33559"><ele>122.92</ele></trkpt>
      <trkpt lat="47.80329" lon="-122.33559"><ele>123.13</ele></trkpt>
      <trkpt lat="47.80338" lon="-122.33559"><ele>123.20</ele></trkpt>
      <trkpt lat="47.80376" lon="-122.3356"><ele>124.05</ele></trkpt>
      <trkpt lat="47.80408" lon="-122.3356"><ele>124.64</ele></trkpt>
      <trkpt lat="47.80415" lon="-122.3356"><ele>124.63</ele></trkpt>
      <trkpt lat="47.80421" lon="-122.33561"><ele>124.92</ele></trkpt>
      <trkpt lat="47.80462" lon="-122.33561"><ele>125.71</ele></trkpt>
      <trkpt lat="47.80468" lon="-122.33561"><ele>125.67</ele></trkpt>
      <trkpt lat="47.80474" lon="-122.33561"><ele>125.74</ele></trkpt>
      <trkpt lat="47.80519" lon="-122.33562"><ele>126.33</ele></trkpt>
      <trkpt lat="47.80557" lon="-122.33563"><ele>127.27</ele></trkpt>
      <trkpt lat="47.80562" lon="-122.33563"><ele>127.31</ele></trkpt>
      <trkpt lat="47.80567" lon="-122.33563"><ele>127.49</ele></trkpt>
      <trkpt lat="47.80583" lon="-122.33563"><ele>127.92</ele></trkpt>
      <trkpt lat="47.80589" lon="-122.33563"><ele>127.92</ele></trkpt>
      <trkpt lat="47.80593" lon="-122.33563"><ele>128.10</ele></trkpt>
      <trkpt lat="47.80603" lon="-122.33563"><ele>128.35</ele></trkpt>
      <trkpt lat="47.80644" lon="-122.33564"><ele>129.09</ele></trkpt>
      <trkpt lat="47.8066" lon="-122.33564"><ele>129.25</ele></trkpt>
      <trkpt lat="47.80677" lon="-122.33563"><ele>129.47</ele></trkpt>
      <trkpt lat="47.80679" lon="-122.33562"><ele>129.54</ele></trkpt>
      <trkpt lat="47.80683" lon="-122.33557"><ele>129.51</ele></trkpt>
      <trkpt lat="47.80685" lon="-122.33547"><ele>129.31</ele></trkpt>
      <trkpt lat="47.80685" lon="-122.33511"><ele>128.41</ele></trkpt>
      <trkpt lat="47.80685" lon="-122.33449"><ele>126.91</ele></trkpt>
      <trkpt lat="47.80693" lon="-122.33449"><ele>127.06</ele></trkpt>
      <trkpt lat="47.80693" lon="-122.33395"><ele>125.62</ele></trkpt>
      <trkpt lat="47.80698" lon="-122.33395"><ele>125.46</ele></trkpt>
      <trkpt lat="47.80698" lon="-122.33339"><ele>123.89</ele></trkpt>
      <trkpt lat="47.80697" lon="-122.33309"><ele>122.90</ele></trkpt>
      <trkpt lat="47.80699" lon="-122.33306"><ele>122.88</ele></trkpt>
      <trkpt lat="47.80698" lon="-122.33303"><ele>122.66</ele></trkpt>
      <trkpt lat="47.80698" lon="-122.33295"><ele>122.48</ele></trkpt>
      <trkpt lat="47.80726" lon="-122.33296"><ele>122.37</ele></trkpt>
      <trkpt lat="47.80779" lon="-122.33298"><ele>122.77</ele></trkpt>
      <trkpt lat="47.80809" lon="-122.33299"><ele>123.64</ele></trkpt>
      <trkpt lat="47.80874" lon="-122.333"><ele>124.79</ele></trkpt>
      <trkpt lat="47.8088" lon="-122.333"><ele>124.68</ele></trkpt>
      <trkpt lat="47.80953" lon="-122.33299"><ele>125.29</ele></trkpt>
      <trkpt lat="47.80973" lon="-122.33299"><ele>124.73</ele></trkpt>
      <trkpt lat="47.80995" lon="-122.33298"><ele>124.39</ele></trkpt>
      <trkpt lat="47.81014" lon="-122.33298"><ele>124.27</ele></trkpt>
      <trkpt lat="47.81034" lon="-122.33298"><ele>124.58</ele></trkpt>
      <trkpt lat="47.81046" lon="-122.33297"><ele>124.71</ele></trkpt>
      <trkpt lat="47.81056" lon="-122.33297"><ele>124.88</ele></trkpt>
      <trkpt lat="47.81061" lon="-122.33297"><ele>124.84</ele></trkpt>
      <trkpt lat="47.81061" lon="-122.33183"><ele>125.60</ele></trkpt>
      <trkpt lat="47.81065" lon="-122.3318"><ele>125.95</ele></trkpt>
      <trkpt lat="47.81068" lon="-122.33175"><ele>126.41</ele></trkpt>
      <trkpt lat="47.81071" lon="-122.33169"><ele>126.67</ele></trkpt>
      <trkpt lat="47.81181" lon="-122.33174"><ele>128.12</ele></trkpt>
      <trkpt lat="47.81293" lon="-122.33177"><ele>130.21</ele></trkpt>
      <trkpt lat="47.81418" lon="-122.33165"><ele>129.96</ele></trkpt>
      <trkpt lat="47.81556" lon="-122.33167"><ele>131.73</ele></trkpt>
      <trkpt lat="47.81599" lon="-122.33168"><ele>131.68</ele></trkpt>
      <trkpt lat="47.816" lon="-122.33235"><ele>133.12</ele></trkpt>
      <trkpt lat="47.81605" lon="-122.33252"><ele>133.29</ele></trkpt>
      <trkpt lat="47.81607" lon="-122.33265"><ele>133.51</ele></trkpt>
      <trkpt lat="47.81608" lon="-122.33304"><ele>134.60</ele></trkpt>
      <trkpt lat="47.81791" lon="-122.33307"><ele>132.36</ele></trkpt>
      <trkpt lat="47.81955" lon="-122.33308"><ele>131.69</ele></trkpt>
      <trkpt lat="47.81955" lon="-122.333"><ele>131.63</ele></trkpt>
      <trkpt lat="47.81954" lon="-122.33108"><ele>132.08</ele></trkpt>
      <trkpt lat="47.81949" lon="-122.32786"><ele>134.04</ele></trkpt>
      <trkpt lat="47.81943" lon="-122.32786"><ele>134.28</ele></trkpt>
      <trkpt lat="47.81943" lon="-122.32783"><ele>134.28</ele></trkpt>
      <trkpt lat="47.81853" lon="-122.32772"><ele>136.71</ele></trkpt>
      <trkpt lat="47.81846" lon="-122.32775"><ele>137.03</ele></trkpt>
      <trkpt lat="47.8184" lon="-122.32785"><ele>137.81</ele></trkpt>
      <trkpt lat="47.81839" lon="-122.32843"><ele>137.90</ele></trkpt>
      <trkpt lat="47.81835" lon="-122.32846"><ele>137.94</ele></trkpt>
      <trkpt lat="47.81751" lon="-122.32845"><ele>137.91</ele></trkpt>
      <trkpt lat="47.81752" lon="-122.32862"><ele>137.70</ele></trkpt>
      <trkpt lat="47.81731" lon="-122.32862"><ele>137.14</ele></trkpt>
      <trkpt lat="47.81708" lon="-122.32866"><ele>137.16</ele></trkpt>
      <trkpt lat="47.81706" lon="-122.32899"><ele>136.97</ele></trkpt>
      <trkpt lat="47.81688" lon="-122.32906"><ele>136.88</ele></trkpt>
      <trkpt lat="47.81683" lon="-122.32925"><ele>136.55</ele></trkpt>
      <trkpt lat="47.81675" lon="-122.32929"><ele>136.46</ele></trkpt>
      <trkpt lat="47.81663" lon="-122.32932"><ele>136.67</ele></trkpt>
      <trkpt lat="47.81658" lon="-122.32937"><ele>136.76</ele></trkpt>
      <trkpt lat="47.81652" lon="-122.32948"><ele>136.52</ele></trkpt>
      <trkpt lat="47.81644" lon="-122.32951"><ele>136.12</ele></trkpt>
      <trkpt lat="47.81642" lon="-122.32954"><ele>135.92</ele></trkpt>
      <trkpt lat="47.8163" lon="-122.32953"><ele>135.64</ele></trkpt>
      <trkpt lat="47.81619" lon="-122.32946"><ele>135.46</ele></trkpt>
      <trkpt lat="47.81612" lon="-122.32949"><ele>135.10</ele></trkpt>
      <trkpt lat="47.8161" lon="-122.32954"><ele>134.85</ele></trkpt>
      <trkpt lat="47.81608" lon="-122.3296"><ele>134.67</ele></trkpt>
      <trkpt lat="47.81606" lon="-122.32951"><ele>134.91</ele></trkpt>
      <trkpt lat="47.81605" lon="-122.32934"><ele>135.65</ele></trkpt>
      <trkpt lat="47.81598" lon="-122.32918"><ele>136.44</ele></trkpt>
      <trkpt lat="47.81596" lon="-122.32918"><ele>136.40</ele></trkpt>
      <trkpt lat="47.81586" lon="-122.32919"><ele>136.75</ele></trkpt>
      <trkpt lat="47.81584" lon="-122.32918"><ele>136.81</ele></trkpt>
      <trkpt lat="47.81581" lon="-122.32923"><ele>136.66</ele></trkpt>
      <trkpt lat="47.81576" lon="-122.32925"><ele>136.62</ele></trkpt>
      <trkpt lat="47.81571" lon="-122.32923"><ele>136.65</ele></trkpt>
      <trkpt lat="47.81566" lon="-122.32916"><ele>136.71</ele></trkpt>
      <trkpt lat="47.81564" lon="-122.32913"><ele>136.61</ele></trkpt>
      <trkpt lat="47.81556" lon="-122.32912"><ele>136.23</ele></trkpt>
      <trkpt lat="47.81551" lon="-122.32919"><ele>136.40</ele></trkpt>
      <trkpt lat="47.81523" lon="-122.32918"><ele>136.46</ele></trkpt>
      <trkpt lat="47.81418" lon="-122.32914"><ele>136.10</ele></trkpt>
      <trkpt lat="47.81409" lon="-122.32914"><ele>136.00</ele></trkpt>
      <trkpt lat="47.81404" lon="-122.32918"><ele>135.84</ele></trkpt>
      <trkpt lat="47.81404" lon="-122.32926"><ele>135.90</ele></trkpt>
      <trkpt lat="47.81401" lon="-122.32922"><ele>135.84</ele></trkpt>
      <trkpt lat="47.81384" lon="-122.3286"><ele>136.52</ele></trkpt>
      <trkpt lat="47.81365" lon="-122.32793"><ele>135.25</ele></trkpt>
      <trkpt lat="47.81317" lon="-122.32755"><ele>137.01</ele></trkpt>
      <trkpt lat="47.81316" lon="-122.3264"><ele>136.16</ele></trkpt>
      <trkpt lat="47.81274" lon="-122.32639"><ele>136.06</ele></trkpt>
      <trkpt lat="47.81221" lon="-122.32607"><ele>134.58</ele></trkpt>
      <trkpt lat="47.81195" lon="-122.32606"><ele>133.03</ele></trkpt>
      <trkpt lat="47.81107" lon="-122.32602"><ele>131.29</ele></trkpt>
      <trkpt lat="47.8106" lon="-122.32602"><ele>130.35</ele></trkpt>
      <trkpt lat="47.81059" lon="-122.32604"><ele>130.33</ele></trkpt>
      <trkpt lat="47.81059" lon="-122.32597"><ele>130.07</ele></trkpt>
      <trkpt lat="47.81055" lon="-122.32592"><ele>129.61</ele></trkpt>
      <trkpt lat="47.81055" lon="-122.32583"><ele>129.37</ele></trkpt>
      <trkpt lat="47.81048" lon="-122.32583"><ele>129.43</ele></trkpt>
      <trkpt lat="47.81048" lon="-122.32562"><ele>128.95</ele></trkpt>
      <trkpt lat="47.81047" lon="-122.3252"><ele>128.35</ele></trkpt>
      <trkpt lat="47.81047" lon="-122.32468"><ele>128.04</ele></trkpt>
      <trkpt lat="47.81046" lon="-122.32435"><ele>127.52</ele></trkpt>
      <trkpt lat="47.81046" lon="-122.32421"><ele>127.24</ele></trkpt>
      <trkpt lat="47.81045" lon="-122.32397"><ele>127.42</ele></trkpt>
      <trkpt lat="47.81045" lon="-122.32371"><ele>127.07</ele></trkpt>
      <trkpt lat="47.81044" lon="-122.32332"><ele>126.04</ele></trkpt>
      <trkpt lat="47.81043" lon="-122.32279"><ele>124.17</ele></trkpt>
      <trkpt lat="47.81043" lon="-122.32268"><ele>123.64</ele></trkpt>
      <trkpt lat="47.81043" lon="-122.32251"><ele>122.63</ele></trkpt>
      <trkpt lat="47.81043" lon="-122.32249"><ele>122.45</ele></trkpt>
      <trkpt lat="47.81042" lon="-122.32202"><ele>119.34</ele></trkpt>
      <trkpt lat="47.81041" lon="-122.3211"><ele>112.55</ele></trkpt>
      <trkpt lat="47.81039" lon="-122.32035"><ele>110.24</ele></trkpt>
      <trkpt lat="47.81039" lon="-122.31988"><ele>110.22</ele></trkpt>
      <trkpt lat="47.81038" lon="-122.31965"><ele>110.71</ele></trkpt>
      <trkpt lat="47.81037" lon="-122.31915"><ele>112.32</ele></trkpt>
      <trkpt lat="47.81037" lon="-122.31904"><ele>112.77</ele></trkpt>
      <trkpt lat="47.81034" lon="-122.31819"><ele>115.37</ele></trkpt>
      <trkpt lat="47.81034" lon="-122.31791"><ele>115.42</ele></trkpt>
      <trkpt lat="47.81032" lon="-122.31736"><ele>114.74</ele></trkpt>
      <trkpt lat="47.81032" lon="-122.31713"><ele>114.56</ele></trkpt>
      <trkpt lat="47.81029" lon="-122.31588"><ele>112.71</ele></trkpt>
      <trkpt lat="47.81029" lon="-122.31546"><ele>111.28</ele></trkpt>
      <trkpt lat="47.81028" lon="-122.31532"><ele>110.74</ele></trkpt>
      <trkpt lat="47.81028" lon="-122.31522"><ele>110.40</ele></trkpt>
      <trkpt lat="47.81027" lon="-122.31493"><ele>109.42</ele></trkpt>
      <trkpt lat="47.81026" lon="-122.31443"><ele>108.50</ele></trkpt>
      <trkpt lat="47.81027" lon="-122.31416"><ele>108.23</ele></trkpt>
      <trkpt lat="47.81027" lon="-122.31402"><ele>108.03</ele></trkpt>
      <trkpt lat="47.81027" lon="-122.31394"><ele>107.95</ele></trkpt>
      <trkpt lat="47.81027" lon="-122.3133"><ele>107.16</ele></trkpt>
      <trkpt lat="47.81024" lon="-122.31197"><ele>108.82</ele></trkpt>
      <trkpt lat="47.81022" lon="-122.31008"><ele>106.85</ele></trkpt>
      <trkpt lat="47.81021" lon="-122.30938"><ele>106.86</ele></trkpt>
      <trkpt lat="47.81021" lon="-122.30909"><ele>107.28</ele></trkpt>
      <trkpt lat="47.8102" lon="-122.30862"><ele>108.04</ele></trkpt>
      <trkpt lat="47.8102" lon="-122.30857"><ele>108.12</ele></trkpt>
      <trkpt lat="47.8102" lon="-122.30835"><ele>108.45</ele></trkpt>
      <trkpt lat="47.8102" lon="-122.30771"><ele>109.11</ele></trkpt>
      <trkpt lat="47.8102" lon="-122.30724"><ele>109.33</ele></trkpt>
      <trkpt lat="47.81019" lon="-122.30681"><ele>109.92</ele></trkpt>
      <trkpt lat="47.81019" lon="-122.30591"><ele>112.44</ele></trkpt>
      <trkpt lat="47.81025" lon="-122.30591"><ele>112.33</ele></trkpt>
      <trkpt lat="47.81025" lon="-122.30585"><ele>112.43</ele></trkpt>
      <trkpt lat="47.81025" lon="-122.30577"><ele>112.63</ele></trkpt>
      <trkpt lat="47.81024" lon="-122.30478"><ele>111.97</ele></trkpt>
      <trkpt lat="47.81026" lon="-122.30468"><ele>111.78</ele></trkpt>
      <trkpt lat="47.81026" lon="-122.30464"><ele>111.64</ele></trkpt>
      <trkpt lat="47.81026" lon="-122.30457"><ele>111.51</ele></trkpt>
      <trkpt lat="47.81026" lon="-122.30452"><ele>111.57</ele></trkpt>
      <trkpt lat="47.81026" lon="-122.30445"><ele>111.68</ele></trkpt>
      <trkpt lat="47.81027" lon="-122.3044"><ele>111.66</ele></trkpt>
      <trkpt lat="47.81029" lon="-122.30435"><ele>111.57</ele></trkpt>
      <trkpt lat="47.81033" lon="-122.30428"><ele>111.39</ele></trkpt>
      <trkpt lat="47.81044" lon="-122.3042"><ele>111.31</ele></trkpt>
      <trkpt lat="47.81049" lon="-122.30411"><ele>111.34</ele></trkpt>
      <trkpt lat="47.81076" lon="-122.30329"><ele>111.33</ele></trkpt>
      <trkpt lat="47.8108" lon="-122.30317"><ele>111.31</ele></trkpt>
      <trkpt lat="47.8109" lon="-122.3029"><ele>111.16</ele></trkpt>
      <trkpt lat="47.81254" lon="-122.29798"><ele>106.53</ele></trkpt>
      <trkpt lat="47.81258" lon="-122.2978"><ele>106.25</ele></trkpt>
      <trkpt lat="47.81263" lon="-122.29762"><ele>106.14</ele></trkpt>
      <trkpt lat="47.81349" lon="-122.2951"><ele>105.30</ele></trkpt>
      <trkpt lat="47.81363" lon="-122.29463"><ele>105.44</ele></trkpt>
      <trkpt lat="47.81368" lon="-122.29449"><ele>101.18</ele></trkpt>
      <trkpt lat="47.81381" lon="-122.29415"><ele>105.23</ele></trkpt>
      <trkpt lat="47.81387" lon="-122.29412"><ele>104.91</ele></trkpt>
      <trkpt lat="47.8139" lon="-122.29411"><ele>104.76</ele></trkpt>
    </trkseg>
  </trk>
</gpx>
