{
  "type": "FeatureCollection",
  "features": [
    {
      "type": "Feature",
      "properties": {
        "name": "Everett",
        "id": 333,
        "stationInfo": "https://www.soundtransit.org/system-expansion/everett-link-extension",
        "open": 2041,
        "feature_type": "exchange"
      },
      "geometry": {
        "coordinates": [
          -122.20171,
          47.97823
        ],
        "type": "Point"
      }
    },
    {
      "type": "Feature",
      "properties": {
        "name": "SR 526/Evergreen",
        "id": 334,
        "stationInfo": "https://www.soundtransit.org/system-expansion/everett-link-extension",
        "open": 2041,
        "feature_type": "exchange"
      },
      "geometry": {
        "coordinates": [
          -122.22744,
          47.92348
        ],
        "type": "Point"
      }
    },
    {
      "type": "Feature",
      "properties": {
        "name": "SW Everett Industrial Center",
        "id": 335,
        "stationInfo": "https://www.soundtransit.org/system-expansion/everett-link-extension",
        "open": 2037,
        "feature_type": "exchange"
      },
      "geometry": {
        "coordinates": [
          -122.26291,
          47.92196
        ],
        "type": "Point"
      }
    },
    {
      "type": "Feature",
      "properties": {
        "name": "SR 99/Airport Rd",
        "id": 336,
        "stationInfo": "https://www.soundtransit.org/system-expansion/everett-link-extension",
        "open": ">2041",
        "feature_type": "exchange"
      },
      "geometry": {
        "coordinates": [
          -122.25849,
          47.89014
        ],
        "type": "Point"
      }
    },
    {
      "type": "Feature",
      "properties": {
        "name": "Mariner",
        "id": 337,
        "stationInfo": "https://www.soundtransit.org/system-expansion/everett-link-extension",
        "open": 2037,
        "feature_type": "exchange"
      },
      "geometry": {
        "coordinates": [
          -122.24098,
          47.87964
        ],
        "type": "Point"
      }
    },
    {
      "type": "Feature",
      "properties": {
        "name": "Ash Way",
        "id": 338,
        "stationInfo": "https://www.soundtransit.org/system-expansion/everett-link-extension",
        "open": 2037,
        "feature_type": "exchange"
      },
      "geometry": {
        "coordinates": [
          -122.25696,
          47.85276
        ],
        "type": "Point"
      }
    },
    {
      "type": "Feature",
      "properties": {
        "name": "West Alderwood",
        "id": 339,
        "stationInfo": "https://www.soundtransit.org/system-expansion/everett-link-extension",
        "open": 2037,
        "feature_type": "exchange"
      },
      "geometry": {
        "coordinates": [
          -122.2713,
          47.82801
        ],
        "type": "Point"
      }
    },
    {
      "type": "Feature",
      "properties": {
        "name": "Ballard",
        "id": 144,
        "stationInfo": "https://www.soundtransit.org/system-expansion/ballard-link-extension",
        "open": 2060,
        "feature_type": "exchange"
      },
      "geometry": {
        "coordinates": [
          -122.3737,
          47.66864
        ],
        "type": "Point"
      }
    },
    {
      "type": "Feature",
      "properties": {
        "name": "Interbay",
        "id": 145,
        "stationInfo": "https://www.soundtransit.org/system-expansion/ballard-link-extension",
        "open": 2060,
        "feature_type": "exchange"
      },
      "geometry": {
        "coordinates": [
          -122.37873,
          47.65099
        ],
        "type": "Point"
      }
    },
    {
      "type": "Feature",
      "properties": {
        "name": "Smith Cove",
        "id": 146,
        "stationInfo": "https://www.soundtransit.org/system-expansion/ballard-link-extension",
        "open": 2060,
        "feature_type": "exchange"
      },
      "geometry": {
        "coordinates": [
          -122.37586,
          47.63206
        ],
        "type": "Point"
      }
    },
    {
      "type": "Feature",
      "properties": {
        "name": "Seattle Center",
        "id": 147,
        "stationInfo": "https://www.soundtransit.org/system-expansion/ballard-link-extension",
        "open": 2042,
        "feature_type": "exchange"
      },
      "geometry": {
        "coordinates": [
          -122.35485,
          47.62328
        ],
        "type": "Point"
      }
    },
    {
      "type": "Feature",
      "properties": {
        "name": "South Lake Union",
        "id": 148,
        "stationInfo": "https://www.soundtransit.org/system-expansion/ballard-link-extension",
        "open": 2042,
        "feature_type": "exchange"
      },
      "geometry": {
        "coordinates": [
          -122.34394,
          47.6221
        ],
        "type": "Point"
      }
    },
    {
      "type": "Feature",
      "properties": {
        "name": "Denny Station",
        "id": 149,
        "stationInfo": "https://www.soundtransit.org/system-expansion/ballard-link-extension",
        "open": 2042,
        "feature_type": "exchange"
      },
      "geometry": {
        "coordinates": [
          -122.3371,
          47.61744
        ],
        "type": "Point"
      }
    },
    {
      "type": "Feature",
      "properties": {
        "name": "Midtown",
        "id": 152,
        "stationInfo": "https://www.soundtransit.org/system-expansion/ballard-link-extension",
        "open": 2042,
        "feature_type": "exchange"
      },
      "geometry": {
        "coordinates": [
          -122.33127,
          47.60587
        ],
        "type": "Point"
      }
    },
    {
      "type": "Feature",
      "properties": {
        "name": "South Graham Street",
        "id": 159,
        "stationInfo": "https://www.soundtransit.org/system-expansion/graham-street-station",
        "open": 2031,
        "feature_type": "exchange"
      },
      "geometry": {
        "coordinates": [
          -122.28541,
          47.54571
        ],
        "type": "Point"
      }
    },
    {
      "type": "Feature",
      "properties": {
        "name": "Delridge",
        "id": 356,
        "stationInfo": "https://www.soundtransit.org/system-expansion/west-seattle-link-extension",
        "open": 2032,
        "feature_type": "exchange"
      },
      "geometry": {
        "coordinates": [
          -122.36437,
          47.56864
        ],
        "type": "Point"
      }
    },
    {
      "type": "Feature",
      "properties": {
        "name": "Alaska Junction",
        "id": 358,
        "stationInfo": "https://www.soundtransit.org/system-expansion/west-seattle-link-extension",
        "open": 2032,
        "feature_type": "exchange"
      },
      "geometry": {
        "coordinates": [
          -122.38421,
          47.56109
        ],
        "type": "Point"
      }
    },
    {
      "type": "Feature",
      "properties": {
        "name": "South Federal Way",
        "id": 169,
        "stationInfo": "https://www.soundtransit.org/system-expansion/tacoma-dome-link-extension",
        "open": 2035,
        "feature_type": "exchange"
      },
      "geometry": {
        "coordinates": [
          -122.31406,
          47.28643
        ],
        "type": "Point"
      }
    },
    {
      "type": "Feature",
      "properties": {
        "name": "Fife",
        "id": 170,
        "stationInfo": "https://www.soundtransit.org/system-expansion/tacoma-dome-link-extension",
        "open": 2035,
        "feature_type": "exchange"
      },
      "geometry": {
        "coordinates": [
          -122.35126,
          47.24384
        ],
        "type": "Point"
      }
    },
    {
      "type": "Feature",
      "properties": {
        "name": "Portland",
        "id": 171,
        "stationInfo": "https://www.soundtransit.org/system-expansion/tacoma-dome-link-extension",
        "open": 2035,
        "feature_type": "exchange"
      },
      "geometry": {
        "coordinates": [
          -122.40978,
          47.24006
        ],
        "type": "Point"
      }
    },
    {
      "type": "Feature",
      "properties": {
        "name": "Tacoma Dome",
        "id": 172,
        "stationInfo": "https://www.soundtransit.org/system-expansion/tacoma-dome-link-extension",
        "open": 2035,
        "feature_type": "exchange"
      },
      "geometry": {
        "coordinates": [
          -122.42687,
          47.2396
        ],
        "type": "Point"
      }
    },
    {
      "type": "Feature",
      "properties": {
        "name": "Tacoma Dome",
        "id": "T72",
        "stationInfo": "https://www.soundtransit.org/ride-with-us/stops-stations/tacoma-dome-station",
        "feature_type": "exchange",
        "stopCodeNorth": "40_T01",
        "stopCodeSouth": "40_T01"
      },
      "geometry": {
        "coordinates": [
          -122.42754,
          47.23956
        ],
        "type": "Point"
      }
    },
    {
      "type": "Feature",
      "properties": {
        "name": "S 25th",
        "id": "T73",
        "stationInfo": "https://www.soundtransit.org/ride-with-us/stops-stations/s-25th-station",
        "feature_type": "exchange",
        "stopCodeNorth": "40_T03",
        "stopCodeSouth": "40_T03"
      },
      "geometry": {
        "coordinates": [
          -122.43424,
          47.2391
        ],
        "type": "Point"
      }
    },
    {
      "type": "Feature",
      "properties": {
        "name": "Union Station",
        "id": "T74",
        "stationInfo": "https://www.soundtransit.org/ride-with-us/stops-stations/union-station",
        "feature_type": "exchange",
        "stopCodeNorth": "40_T05-T1",
        "stopCodeSouth": "40_T05-T2"
      },
      "geometry": {
        "coordinates": [
          -122.43664,
          47.24488
        ],
        "type": "Point"
      }
    },
    {
      "type": "Feature",
      "properties": {
        "name": "Convention Center",
        "id": "T75",
        "stationInfo": "https://www.soundtransit.org/ride-with-us/stops-stations/convention-center-station",
        "feature_type": "exchange",
        "stopCodeNorth": "40_T07-T1",
        "stopCodeSouth": "40_T07-T2"
      },
      "geometry": {
        "coordinates": [
          -122.43857,
          47.24951
        ],
        "type": "Point"
      }
    },
    {
      "type": "Feature",
      "properties": {
        "name": "Theater District",
        "id": "T76",
        "stationInfo": "https://www.soundtransit.org/ride-with-us/stops-stations/theater-district-station",
        "feature_type": "exchange",
        "stopCodeNorth": "40_T09-T1",
        "stopCodeSouth": "40_T09-T2"
      },
      "geometry": {
        "coordinates": [
          -122.4393,
          47.25288
        ],
        "type": "Point"
      }
    },
    {
      "type": "Feature",
      "properties": {
        "name": "Old City Hall",
        "id": "T77",
        "stationInfo": "https://www.soundtransit.org/ride-with-us/stops-stations/old-city-hall-station",
        "feature_type": "exchange",
        "stopCodeNorth": "40_T13-T1",
        "stopCodeSouth": "40_T13-T2"
      },
      "geometry": {
        "coordinates": [
          -122.44044,
          47.25779
        ],
        "type": "Point"
      }
    },
    {
      "type": "Feature",
      "properties": {
        "name": "S 4th",
        "id": "T78",
        "stationInfo": "https://www.soundtransit.org/ride-with-us/stops-stations/s-4th-station",
        "feature_type": "exchange",
        "stopCodeNorth": "40_T15-T1",
        "stopCodeSouth": "40_T15-T2"
      },
      "geometry": {
        "coordinates": [
          -122.44264,
          47.26121
        ],
        "type": "Point"
      }
    },
    {
      "type": "Feature",
      "properties": {
        "name": "Stadium District",
        "id": "T79",
        "stationInfo": "https://www.soundtransit.org/ride-with-us/stops-stations/stadium-district-station",
        "feature_type": "exchange",
        "stopCodeNorth": "40_T17-T2",
        "stopCodeSouth": "40_T17-T1"
      },
      "geometry": {
        "coordinates": [
          -122.44899,
          47.26386
        ],
        "type": "Point"
      }
    },
    {
      "type": "Feature",
      "properties": {
        "name": "Tacoma General",
        "id": "T80",
        "stationInfo": "https://www.soundtransit.org/ride-with-us/stops-stations/tacoma-general-station",
        "feature_type": "exchange",
        "stopCodeNorth": "40_T19-T2",
        "stopCodeSouth": "40_T19-T1"
      },
      "geometry": {
        "coordinates": [
          -122.45357,
          47.2601
        ],
        "type": "Point"
      }
    },
    {
      "type": "Feature",
      "properties": {
        "name": "6th Ave",
        "id": "T81",
        "stationInfo": "https://www.soundtransit.org/ride-with-us/stops-stations/6th-ave-station",
        "feature_type": "exchange",
        "stopCodeNorth": "40_T21-T2",
        "stopCodeSouth": "40_T21-T1"
      },
      "geometry": {
        "coordinates": [
          -122.45286,
          47.25693
        ],
        "type": "Point"
      }
    },
    {
      "type": "Feature",
      "properties": {
        "name": "Hilltop District",
        "id": "T82",
        "stationInfo": "https://www.soundtransit.org/ride-with-us/stops-stations/hilltop-district-station",
        "feature_type": "exchange",
        "stopCodeNorth": "40_T23-T2",
        "stopCodeSouth": "40_T23-T1"
      },
      "geometry": {
        "coordinates": [
          -122.45169,
          47.25187
        ],
        "type": "Point"
      }
    },
    {
      "type": "Feature",
      "properties": {
        "name": "St Joseph",
        "id": "T83",
        "stationInfo": "https://www.soundtransit.org/ride-with-us/stops-stations/st-joseph-station",
        "feature_type": "exchange",
        "stopCodeNorth": "40_T25-T2",
        "stopCodeSouth": "40_T25-T1"
      },
      "geometry": {
        "coordinates": [
          -122.45009,
          47.24489
        ],
        "type": "Point"
      }
    },
    {
      "type": "Feature",
      "properties": {
        "name": "Ainsworth",
        "id": "T84",
        "stationInfo": "https://www.soundtransit.org/system-expansion/tcc-tacoma-link-extension",
        "open": 2043,
        "feature_type": "exchange"
      },
      "geometry": {
        "coordinates": [
          -122.45402,
          47.24333
        ],
        "type": "Point"
      }
    },
    {
      "type": "Feature",
      "properties": {
        "name": "Sprague",
        "id": "T85",
        "stationInfo": "https://www.soundtransit.org/system-expansion/tcc-tacoma-link-extension",
        "open": 2043,
        "feature_type": "exchange"
      },
      "geometry": {
        "coordinates": [
          -122.46544,
          47.24268
        ],
        "type": "Point"
      }
    },
    {
      "type": "Feature",
      "properties": {
        "name": "Union",
        "id": "T86",
        "stationInfo": "https://www.soundtransit.org/system-expansion/tcc-tacoma-link-extension",
        "open": 2043,
        "feature_type": "exchange"
      },
      "geometry": {
        "coordinates": [
          -122.48239,
          47.24275
        ],
        "type": "Point"
      }
    },
    {
      "type": "Feature",
      "properties": {
        "name": "Stevens",
        "id": "T87",
        "stationInfo": "https://www.soundtransit.org/system-expansion/tcc-tacoma-link-extension",
        "open": 2043,
        "feature_type": "exchange"
      },
      "geometry": {
        "coordinates": [
          -122.48955,
          47.2428
        ],
        "type": "Point"
      }
    },
    {
      "type": "Feature",
      "properties": {
        "name": "Pearl",
        "id": "T88",
        "stationInfo": "https://www.soundtransit.org/system-expansion/tcc-tacoma-link-extension",
        "open": 2043,
        "feature_type": "exchange"
      },
      "geometry": {
        "coordinates": [
          -122.51556,
          47.2428
        ],
        "type": "Point"
      }
    },
    {
      "type": "Feature",
      "properties": {
        "name": "Tacoma Community College",
        "id": "T89",
        "stationInfo": "https://www.soundtransit.org/system-expansion/tcc-tacoma-link-extension",
        "open": 2043,
        "feature_type": "exchange"
      },
      "geometry": {
        "coordinates": [
          -122.52577,
          47.24271
        ],
        "type": "Point"
      }
    },
    {
      "type": "Feature",
      "properties": {
        "name": "South Kirkland",
        "id": 460,
        "stationInfo": "https://www.soundtransit.org/system-expansion/south-kirkland-issaquah-link",
        "open": 2050,
        "feature_type": "exchange"
      },
      "geometry": {
        "coordinates": [
          -122.19543,
          47.64455
        ],
        "type": "Point"
      }
    },
    {
      "type": "Feature",
      "properties": {
        "name": "Richards Road",
        "id": 456,
        "stationInfo": "https://www.soundtransit.org/system-expansion/south-kirkland-issaquah-link",
        "open": 2050,
        "feature_type": "exchange"
      },
      "geometry": {
        "coordinates": [
          -122.16806,
          47.58224
        ],
        "type": "Point"
      }
    },
    {
      "type": "Feature",
      "properties": {
        "name": "Eastgate",
        "id": 455,
        "stationInfo": "https://www.soundtransit.org/system-expansion/south-kirkland-issaquah-link",
        "open": 2050,
        "feature_type": "exchange"
      },
      "geometry": {
        "coordinates": [
          -122.15155,
          47.58008
        ],
        "type": "Point"
      }
    },
    {
      "type": "Feature",
      "properties": {
        "name": "Lakemont",
        "id": 454,
        "stationInfo": "https://www.soundtransit.org/system-expansion/south-kirkland-issaquah-link",
        "open": ">2050",
        "feature_type": "exchange"
      },
      "geometry": {
        "coordinates": [
          -122.10007,
          47.5665
        ],
        "type": "Point"
      }
    },
    {
      "type": "Feature",
      "properties": {
        "name": "Central Issaquah",
        "id": 453,
        "stationInfo": "https://www.soundtransit.org/system-expansion/south-kirkland-issaquah-link",
        "open": 2050,
        "feature_type": "exchange"
      },
      "geometry": {
        "coordinates": [
          -122.05687,
          47.54605
        ],
        "type": "Point"
      }
    }
  ]
}
